SENTINEL-3A             
1 41335U 16011A   26197.25032244  .00000046  00000+0  36892-4 0  9993
2 41335  98.6237 264.2145 0001354  89.5572 270.5763 14.26739936542209
SENTINEL-3B             
1 43437U 18039A   26197.22346602  .00000045  00000+0  36498-4 0  9994
2 43437  98.6236 264.3371 0001166 119.9543 240.1753 14.26736511428269
